CCSDS_OMM_VERS = 2.0
CREATION_DATE  = 
ORIGINATOR     = 

OBJECT_NAME    = E-KAGAKU-1
OBJECT_ID      = 1998-067XQ
CENTER_NAME    = EARTH
REF_FRAME      = TEME
TIME_SYSTEM    = UTC
MEAN_ELEMENT_THEORY = SGP/SGP4

EPOCH          = 2026-03-14T03:13:09.694272
MEAN_MOTION    = 15.82242031
ECCENTRICITY   = .00056123
INCLINATION    = 51.6234
RA_OF_ASC_NODE = 34.2893
ARG_OF_PERICENTER = 104.4553
MEAN_ANOMALY   = 255.7072

EPHEMERIS_TYPE = 0
CLASSIFICATION_TYPE = U
NORAD_CAT_ID   = 65943
ELEMENT_SET_NO = 999
REV_AT_EPOCH   = 2420
BSTAR          = .11873174E-2
MEAN_MOTION_DOT = .257198E-2
MEAN_MOTION_DDOT = 0

CCSDS_OMM_VERS = 2.0
CREATION_DATE  = 
ORIGINATOR     = 

OBJECT_NAME    = HRC MONOBLOCK CAMERA
OBJECT_ID      = 1998-067XR
CENTER_NAME    = EARTH
REF_FRAME      = TEME
TIME_SYSTEM    = UTC
MEAN_ELEMENT_THEORY = SGP/SGP4

EPOCH          = 2026-03-14T04:15:32.270112
MEAN_MOTION    = 15.62729008
ECCENTRICITY   = .00038093
INCLINATION    = 51.6279
RA_OF_ASC_NODE = 42.8744
ARG_OF_PERICENTER = 114.1656
MEAN_ANOMALY   = 245.9737

EPHEMERIS_TYPE = 0
CLASSIFICATION_TYPE = U
NORAD_CAT_ID   = 66052
ELEMENT_SET_NO = 999
REV_AT_EPOCH   = 2309
BSTAR          = .69076573E-3
MEAN_MOTION_DOT = .63248E-3
MEAN_MOTION_DDOT = 0

CCSDS_OMM_VERS = 2.0
CREATION_DATE  = 
ORIGINATOR     = 

OBJECT_NAME    = HTV-X1
OBJECT_ID      = 2025-241A
CENTER_NAME    = EARTH
REF_FRAME      = TEME
TIME_SYSTEM    = UTC
MEAN_ELEMENT_THEORY = SGP/SGP4

EPOCH          = 2026-03-14T06:41:12.031008
MEAN_MOTION    = 15.22907645
ECCENTRICITY   = .00057408
INCLINATION    = 51.6358
RA_OF_ASC_NODE = 51.0221
ARG_OF_PERICENTER = 187.2058
MEAN_ANOMALY   = 172.8838

EPHEMERIS_TYPE = 0
CLASSIFICATION_TYPE = U
NORAD_CAT_ID   = 66174
ELEMENT_SET_NO = 999
REV_AT_EPOCH   = 2165
BSTAR          = .55020739E-3
MEAN_MOTION_DOT = .12774E-3
MEAN_MOTION_DDOT = 0

CCSDS_OMM_VERS = 2.0
CREATION_DATE  = 
ORIGINATOR     = 

OBJECT_NAME    = SZ-21 MODULE
OBJECT_ID      = 2025-246C
CENTER_NAME    = EARTH
REF_FRAME      = TEME
TIME_SYSTEM    = UTC
MEAN_ELEMENT_THEORY = SGP/SGP4

EPOCH          = 2026-03-13T13:47:50.452800
MEAN_MOTION    = 15.68874146
ECCENTRICITY   = .00010106
INCLINATION    = 41.4731
RA_OF_ASC_NODE = 179.4377
ARG_OF_PERICENTER = 309.0341
MEAN_ANOMALY   = 51.0410

EPHEMERIS_TYPE = 0
CLASSIFICATION_TYPE = U
NORAD_CAT_ID   = 66515
ELEMENT_SET_NO = 999
REV_AT_EPOCH   = 1868
BSTAR          = .36004804E-3
MEAN_MOTION_DOT = .42463E-3
MEAN_MOTION_DDOT = 0

CCSDS_OMM_VERS = 2.0
CREATION_DATE  = 
ORIGINATOR     = 

OBJECT_NAME    = SHENZHOU-22
OBJECT_ID      = 2025-272A
CENTER_NAME    = EARTH
REF_FRAME      = TEME
TIME_SYSTEM    = UTC
MEAN_ELEMENT_THEORY = SGP/SGP4

EPOCH          = 2026-03-14T00:03:53.258400
MEAN_MOTION    = 15.60904690
ECCENTRICITY   = .0006689
INCLINATION    = 41.4663
RA_OF_ASC_NODE = 181.9138
ARG_OF_PERICENTER = 299.3968
MEAN_ANOMALY   = 60.6202

EPHEMERIS_TYPE = 0
CLASSIFICATION_TYPE = U
NORAD_CAT_ID   = 66645
ELEMENT_SET_NO = 999
REV_AT_EPOCH   = 26752
BSTAR          = .34787289E-3
MEAN_MOTION_DOT = .29757E-3
MEAN_MOTION_DDOT = 0

CCSDS_OMM_VERS = 2.0
CREATION_DATE  = 
ORIGINATOR     = 

OBJECT_NAME    = SOYUZ-MS 28
OBJECT_ID      = 2025-275A
CENTER_NAME    = EARTH
REF_FRAME      = TEME
TIME_SYSTEM    = UTC
MEAN_ELEMENT_THEORY = SGP/SGP4

EPOCH          = 2026-03-13T16:59:24.155808
MEAN_MOTION    = 15.48633802
ECCENTRICITY   = .00078842
INCLINATION    = 51.6324
RA_OF_ASC_NODE = 52.4887
ARG_OF_PERICENTER = 189.2977
MEAN_ANOMALY   = 170.7866

EPHEMERIS_TYPE = 0
CLASSIFICATION_TYPE = U
NORAD_CAT_ID   = 66664
ELEMENT_SET_NO = 999
REV_AT_EPOCH   = 55452
BSTAR          = .22432227E-3
MEAN_MOTION_DOT = .1178E-3
MEAN_MOTION_DDOT = 0

CCSDS_OMM_VERS = 2.0
CREATION_DATE  = 
ORIGINATOR     = 

OBJECT_NAME    = DUPLEX
OBJECT_ID      = 1998-067XS
CENTER_NAME    = EARTH
REF_FRAME      = TEME
TIME_SYSTEM    = UTC
MEAN_ELEMENT_THEORY = SGP/SGP4

EPOCH          = 2026-03-14T03:28:47.458272
MEAN_MOTION    = 15.56533878
ECCENTRICITY   = .00026729
INCLINATION    = 51.6291
RA_OF_ASC_NODE = 47.1609
ARG_OF_PERICENTER = 131.0501
MEAN_ANOMALY   = 229.0722

EPHEMERIS_TYPE = 0
CLASSIFICATION_TYPE = U
NORAD_CAT_ID   = 66906
ELEMENT_SET_NO = 999
REV_AT_EPOCH   = 1582
BSTAR          = .48198167E-3
MEAN_MOTION_DOT = .34521E-3
MEAN_MOTION_DDOT = 0

CCSDS_OMM_VERS = 2.0
CREATION_DATE  = 
ORIGINATOR     = 

OBJECT_NAME    = ISS OBJECT XT
OBJECT_ID      = 1998-067XT
CENTER_NAME    = EARTH
REF_FRAME      = TEME
TIME_SYSTEM    = UTC
MEAN_ELEMENT_THEORY = SGP/SGP4

EPOCH          = 2026-03-14T03:58:37.938432
MEAN_MOTION    = 15.70807733
ECCENTRICITY   = .0004685
INCLINATION    = 51.6252
RA_OF_ASC_NODE = 42.7793
ARG_OF_PERICENTER = 110.2484
MEAN_ANOMALY   = 249.9018

EPHEMERIS_TYPE = 0
CLASSIFICATION_TYPE = U
NORAD_CAT_ID   = 66907
ELEMENT_SET_NO = 999
REV_AT_EPOCH   = 1588
BSTAR          = .15370402E-2
MEAN_MOTION_DOT = .199468E-2
MEAN_MOTION_DDOT = 0

CCSDS_OMM_VERS = 2.0
CREATION_DATE  = 
ORIGINATOR     = 

OBJECT_NAME    = ISS OBJECT XU
OBJECT_ID      = 1998-067XU
CENTER_NAME    = EARTH
REF_FRAME      = TEME
TIME_SYSTEM    = UTC
MEAN_ELEMENT_THEORY = SGP/SGP4

EPOCH          = 2026-03-14T03:55:30.148032
MEAN_MOTION    = 15.70944877
ECCENTRICITY   = .00049471
INCLINATION    = 51.6245
RA_OF_ASC_NODE = 42.7614
ARG_OF_PERICENTER = 112.0729
MEAN_ANOMALY   = 248.0794

EPHEMERIS_TYPE = 0
CLASSIFICATION_TYPE = U
NORAD_CAT_ID   = 66908
ELEMENT_SET_NO = 999
REV_AT_EPOCH   = 1588
BSTAR          = .15525717E-2
MEAN_MOTION_DOT = .202744E-2
MEAN_MOTION_DDOT = 0

CCSDS_OMM_VERS = 2.0
CREATION_DATE  = 
ORIGINATOR     = 

OBJECT_NAME    = SILVERSAT
OBJECT_ID      = 1998-067XV
CENTER_NAME    = EARTH
REF_FRAME      = TEME
TIME_SYSTEM    = UTC
MEAN_ELEMENT_THEORY = SGP/SGP4

EPOCH          = 2026-03-14T03:44:39.748704
MEAN_MOTION    = 15.74242303
ECCENTRICITY   = .00054056
INCLINATION    = 51.6244
RA_OF_ASC_NODE = 41.9590
ARG_OF_PERICENTER = 108.4786
MEAN_ANOMALY   = 251.6801

EPHEMERIS_TYPE = 0
CLASSIFICATION_TYPE = U
NORAD_CAT_ID   = 66909
ELEMENT_SET_NO = 999
REV_AT_EPOCH   = 1589
BSTAR          = .18276272E-2
MEAN_MOTION_DOT = .277261E-2
MEAN_MOTION_DDOT = 0

CCSDS_OMM_VERS = 2.0
CREATION_DATE  = 
ORIGINATOR     = 

OBJECT_NAME    = ISS OBJECT XW
OBJECT_ID      = 1998-067XW
CENTER_NAME    = EARTH
REF_FRAME      = TEME
TIME_SYSTEM    = UTC
MEAN_ELEMENT_THEORY = SGP/SGP4

EPOCH          = 2026-03-14T03:54:14.020128
MEAN_MOTION    = 15.70008853
ECCENTRICITY   = .00052849
INCLINATION    = 51.6241
RA_OF_ASC_NODE = 42.7520
ARG_OF_PERICENTER = 112.8313
MEAN_ANOMALY   = 247.3243

EPHEMERIS_TYPE = 0
CLASSIFICATION_TYPE = U
NORAD_CAT_ID   = 66910
ELEMENT_SET_NO = 999
REV_AT_EPOCH   = 1588
BSTAR          = .1435364E-2
MEAN_MOTION_DOT = .179714E-2
MEAN_MOTION_DDOT = 0

CCSDS_OMM_VERS = 2.0
CREATION_DATE  = 
ORIGINATOR     = 

OBJECT_NAME    = ISS OBJECT XX
OBJECT_ID      = 1998-067XX
CENTER_NAME    = EARTH
REF_FRAME      = TEME
TIME_SYSTEM    = UTC
MEAN_ELEMENT_THEORY = SGP/SGP4

EPOCH          = 2026-03-14T03:26:26.412000
MEAN_MOTION    = 15.77941276
ECCENTRICITY   = .00068275
INCLINATION    = 51.6205
RA_OF_ASC_NODE = 41.1030
ARG_OF_PERICENTER = 111.1555
MEAN_ANOMALY   = 249.0176

EPHEMERIS_TYPE = 0
CLASSIFICATION_TYPE = U
NORAD_CAT_ID   = 66911
ELEMENT_SET_NO = 999
REV_AT_EPOCH   = 1589
BSTAR          = .18173737E-2
MEAN_MOTION_DOT = .326439E-2
MEAN_MOTION_DDOT = 0

